[{"OBJECT_NAME":"STARLINK-35154","OBJECT_ID":"2025-207W","EPOCH":"2026-03-09T22:39:40.819680","MEAN_MOTION":15.05648687,"ECCENTRICITY":8.56e-5,"INCLINATION":97.6037,"RA_OF_ASC_NODE":138.9743,"ARG_OF_PERICENTER":106.6462,"MEAN_ANOMALY":253.4859,"EPHEMERIS_TYPE":0,"CLASSIFICATION_TYPE":"U","NORAD_CAT_ID":65612,"ELEMENT_SET_NO":999,"REV_AT_EPOCH":2814,"BSTAR":0.00026506495,"MEAN_MOTION_DOT":3.766e-5,"MEAN_MOTION_DDOT":0},{"OBJECT_NAME":"COSMOS 397 DEB","OBJECT_ID":"1971-015DW","EPOCH":"2026-03-09T03:04:47.479584","MEAN_MOTION":14.84951431,"ECCENTRICITY":0.01922698,"INCLINATION":65.6672,"RA_OF_ASC_NODE":330.2096,"ARG_OF_PERICENTER":116.44,"MEAN_ANOMALY":245.6588,"EPHEMERIS_TYPE":0,"CLASSIFICATION_TYPE":"U","NORAD_CAT_ID":21723,"ELEMENT_SET_NO":999,"REV_AT_EPOCH":75672,"BSTAR":0.0022623994,"MEAN_MOTION_DOT":0.00026928,"MEAN_MOTION_DDOT":0}]
